STARLINK-2601           
1 48384U 21038AH  24121.91667824  .00287191  00000+0  12887-2 0  9999
2 48384  53.0488 127.4643 0001863 109.1186  94.1198 15.82819610165968
STARLINK-2598           
1 48385U 21038AJ  24121.78100996 -.00000081  00000+0  13436-4 0  9992
2 48385  53.0549 154.8637 0001382  94.3628 265.7519 15.06396512165573
STARLINK-2606           
1 48386U 21038AK  24121.37049244  .00001157  00000+0  96573-4 0  9993
2 48386  53.0541 151.7152 0001317  89.7950 270.3189 15.06396358164996
STARLINK-2600           
1 48387U 21038AL  24121.79806605  .00005826  00000+0  40968-3 0  9995
2 48387  53.0521 149.7601 0001325  88.2162 271.8979 15.06400419165650
STARLINK-2594           
1 48388U 21038AM  24121.79438111 -.00000407  00000+0 -84063-5 0  9997
2 48388  53.0540 149.8043 0001795  88.2982 271.8212 15.06393077165655
STARLINK-1904           
1 48389U 21038AN  24121.38290810  .00001515  00000+0  12063-3 0  9993
2 48389  53.0538 146.6429 0001159  95.8892 264.2230 15.06390373165061
STARLINK-2586           
1 48390U 21038AP  24121.38016489  .00001755  00000+0  13662-3 0  9995
2 48390  53.0530 146.6659 0001360  93.4502 266.6642 15.06408914166285
STARLINK-2607           
1 48391U 21038AQ  24121.37647407 -.00000890  00000+0 -40889-4 0  9998
2 48391  53.0534 146.6843 0001578 108.6128 251.5032 15.06395173166287
STARLINK-2605           
1 48392U 21038AR  24121.77087164 -.00000623  00000+0 -22905-4 0  9994
2 48392  53.0532 144.9120 0001263  98.1663 261.9469 15.06397025165717
STARLINK-2602           
1 48393U 21038AS  24121.36911192  .00003724  00000+0  26866-3 0  9999
2 48393  53.0523 146.7143 0001555  61.2664 298.8481 15.06414234166287
STARLINK-2573           
1 48394U 21038AT  24121.76350246 -.00000960  00000+0 -45589-4 0  9996
2 48394  53.0542 144.9467 0000956 109.6862 250.4230 15.06395198165719
STARLINK-2574           
1 48395U 21038AU  24121.34338145 -.00000981  00000+0 -47000-4 0  9998
2 48395  53.0550 147.4535 0001341  89.8116 270.3027 15.06401657165648
STARLINK-2575           
1 48396U 21038AV  24121.75981465  .00000983  00000+0  84889-4 0  9999
2 48396  53.0532 144.9601 0001233  79.7963 280.3165 15.06392088165712
STARLINK-2590           
1 48397U 21038AW  24121.75613059 -.00000397  00000+0 -77284-5 0  9994
2 48397  53.0528 144.9771 0001480  92.6355 267.4803 15.06395547165717
STARLINK-2588           
1 48398U 21038AX  24121.35435904 -.00000898  00000+0 -41416-4 0  9995
2 48398  53.0554 146.7814 0001270  81.9963 278.1170 15.06400747166286
STARLINK-2587           
1 48399U 21038AY  24121.35069656 -.00002309  00000+0 -13621-3 0  9998
2 48399  53.0541 146.7961 0001476  84.6523 275.4635 15.06386004166270
STARLINK-2576           
1 48400U 21038AZ  24121.34698419 -.00006975  00000+0 -44947-3 0  9993
2 48400  53.0550 146.8100 0001700  84.7650 275.3533 15.06427279165063
STARLINK-2571           
1 48401U 21038BA  24121.38384686  .00000088  00000+0  24774-4 0  9990
2 48401  53.0536 146.6574 0001348  96.0986 264.0156 15.06397325165061
STARLINK-2560           
1 48402U 21038BB  24121.31595201  .00002400  00000+0  24652-4 0  9996
2 48402  53.0525 126.7320 0001246  75.5321 284.5834 15.69718689165340
STARLINK-2561           
1 48403U 21038BC  24121.80405943 -.00009359  00000+0 -61105-3 0  9999
2 48403  53.0531 144.7625 0001499  96.3658 263.7502 15.06349945165729
STARLINK-2593           
1 48404U 21038BD  24121.80036450  .00001994  00000+0  15270-3 0  9990
2 48404  53.0526 144.7768 0001333  88.9136 271.2006 15.06406256165729
STARLINK-2570           
1 48405U 21038BE  24121.79667839  .00001177  00000+0  97938-4 0  9995
2 48405  53.0537 144.7944 0001357  88.7124 271.4020 15.06390041165721
STARLINK-2568           
1 48406U 21038BF  24121.79301355  .00003324  00000+0  24200-3 0  9991
2 48406  53.0534 144.8121 0001392  95.6361 264.4787 15.06385905165721
STARLINK-2595           
1 48407U 21038BG  24121.79979808  .00000034  00000+0  20922-4 0  9999
2 48407  53.0539 144.2098 0001295  79.1532 280.9602 15.06985082165724
STARLINK-2592           
1 48408U 21038BH  24121.38753960 -.00000501  00000+0 -14726-4 0  9990
2 48408  53.0547 146.6320 0001516  89.1818 270.9345 15.06397263165060
STARLINK-2596           
1 48409U 21038BJ  24121.80910201  .00005274  00000+0  37242-3 0  9998
2 48409  53.0518 149.7359 0001380  92.2250 267.8897 15.06428590165659
STARLINK-2563           
1 48410U 21038BK  24121.21660818  .00000876  00000+0  77673-4 0  9997
2 48410  53.0532 102.3955 0001512  85.7816 274.3346 15.06404443165682
STARLINK-2505           
1 48411U 21038BL  24121.23364824 -.00001198  00000+0 -61545-4 0  9999
2 48411  53.0542  97.3243 0001394  99.9413 260.1734 15.06396760165759
STARLINK-2581           
1 48412U 21038BM  24121.65021968  .00000167  00000+0  30119-4 0  9991
2 48412  53.0555  95.8876 0001332  84.8789 275.2352 15.06394759166390
STARLINK-2461           
1 48428U 21040A   24121.85705349  .00004494  00000+0  32044-3 0  9990
2 48428  53.0549 349.5243 0001841  94.6142 265.5058 15.06398652165675
STARLINK-2749           
1 48429U 21040B   24121.82664063  .00003588  00000+0  25959-3 0  9995
2 48429  53.0555 319.6727 0001265  87.5217 272.5917 15.06405624166088
STARLINK-2729           
1 48430U 21040C   24121.58334491  .00235608  00000+0  11000-2 0  9990
2 48430  53.0517 300.4169 0001003  77.9138  69.2267 15.82110661  5956
STARLINK-2700           
1 48431U 21040D   24121.80585742 -.00007747  00000+0 -50185-3 0  9994
2 48431  53.0553 314.7550 0001064  92.3245 267.7866 15.06391714165320
STARLINK-2680           
1 48432U 21040E   24121.25628203  .00001444  00000+0  11580-3 0  9996
2 48432  53.0535 312.6160 0000766  97.1944 262.9132 15.06398327164859
STARLINK-2699           
1 48433U 21040F   24121.26871312  .00006489  00000+0  45408-3 0  9999
2 48433  53.0547 317.4454 0001247  78.7268 281.3861 15.06401934164786
STARLINK-2692           
1 48434U 21040G   24121.83036681 -.00003746  00000+0 -23266-3 0  9998
2 48434  53.0556 320.1531 0001325  87.9381 272.1759 15.06408082165257
STARLINK-2633           
1 48435U 21040H   24121.30600056  .00010131  00000+0  69815-3 0  9998
2 48435  53.0548 332.0087 0000949  77.9426 282.1669 15.06394456164582
STARLINK-2639           
1 48436U 21040J   24121.89252771  .00002319  00000+0  17454-3 0  9991
2 48436  53.0561 344.3635 0001105 131.8479 228.2604 15.06389662164916
STARLINK-2642           
1 48437U 21040K   24121.87686230  .00004955  00000+0  35126-3 0  9995
2 48437  53.0549 354.4360 0001641  82.6852 277.4324 15.06403882165606
STARLINK-2640           
1 48438U 21040L   24121.84832940  .00007278  00000+0  50693-3 0  9991
2 48438  53.0549 344.8337 0001386  83.7314 276.3833 15.06405425165737
STARLINK-2583           
1 48439U 21040M   24121.81880487  .00004197  00000+0  30047-3 0  9996
2 48439  53.0545 344.6977 0001486  70.0721 290.0428 15.06398620165735
STARLINK-2682           
1 48440U 21040N   24121.35069875  .00004240  00000+0  30342-3 0  9994
2 48440  53.0546 346.7971 0001488  88.0679 272.0480 15.06396798164380
STARLINK-2702           
1 48441U 21040P   24121.87778317  .00005807  00000+0  40837-3 0  9990
2 48441  53.0549 344.4323 0000925  81.4856 278.6237 15.06404126165747
STARLINK-2644           
1 48442U 21040Q   24121.87409343  .00002219  00000+0  16781-3 0  9996
2 48442  53.0550 344.4476 0001151  87.2854 272.8266 15.06392942165743
STARLINK-2663           
1 48443U 21040R   24121.87041199  .00006890  00000+0  48093-3 0  9998
2 48443  53.0546 344.4650 0001102  82.2434 277.8680 15.06402849165741
STARLINK-2645           
1 48444U 21040S   24121.33595133  .00006144  00000+0  43107-3 0  9995
2 48444  53.0542 346.8642 0001261  72.3073 287.8053 15.06394301164387
STARLINK-2634           
1 48445U 21040T   24121.86303465  .00000509  00000+0  53031-4 0  9996
2 48445  53.0562 344.5000 0000664 105.1468 254.9594 15.06391571165744
STARLINK-2247           
1 48446U 21040U   24121.85935021  .00003658  00000+0  26451-3 0  9998
2 48446  53.0549 344.5197 0001454  97.8292 262.2862 15.06379118165740
STARLINK-2269           
1 48447U 21040V   24121.58334491  .01051056  00000+0  40246-2 0  9996
2 48447  53.0505 316.2119 0000612  82.2622  39.5944 15.84643066  5968
STARLINK-2632           
1 48448U 21040W   24121.29041417  .00000475  00000+0  87702-5 0  9997
2 48448  53.0525 326.5010 0000109 185.2996 174.8019 15.69713833164666
STARLINK-2655           
1 48449U 21040X   24121.85197290  .00006132  00000+0  43039-3 0  9990
2 48449  53.0555 344.5484 0000978  96.9904 263.1196 15.06383521165742
STARLINK-2660           
1 48450U 21040Y   24121.32024854  .00003333  00000+0  24265-3 0  9999
2 48450  53.0548 346.9635 0001613  79.0543 281.0627 15.06386616164383
STARLINK-2652           
1 48451U 21040Z   24121.81294626  .00010150  00000+0  88388-4 0  9992
2 48451  53.0541 323.7354 0001337 175.9612 184.1416 15.69749780166020
STARLINK-2703           
1 48452U 21040AA  24121.84460453  .00007563  00000+0  52599-3 0  9997
2 48452  53.0550 344.5528 0001226  72.3827 287.7295 15.06405672165743
STARLINK-2620           
1 48453U 21040AB  24121.04477613  .00019959  00000+0  13551-2 0  9992
2 48453  53.0543 348.1700 0001292  92.0999 268.0138 15.06398385164345
STARLINK-2654           
1 48454U 21040AC  24121.83722481  .00009415  00000+0  64958-3 0  9990
2 48454  53.0541 344.6146 0001576 125.6631 234.4505 15.06428599165741
STARLINK-2497           
1 48455U 21040AD  24121.83355323  .00010039  00000+0  69177-3 0  9990
2 48455  53.0546 344.6307 0001441  74.8991 285.2157 15.06407432165066
STARLINK-2508           
1 48456U 21040AE  24121.81989742  .00018435  00000+0  15645-3 0  9996
2 48456  53.0515 318.2225 0001504  82.0309 278.0878 15.69744084165430
STARLINK-2698           
1 48458U 21040AG  24121.37789392  .00005272  00000+0  37246-3 0  9994
2 48458  53.0544 351.7652 0001300  92.7553 267.3585 15.06412397165035
